[{"OBJECT_NAME":"JILIN-1 GAOFEN 03D52","OBJECT_ID":"2022-155E","EPOCH":"2026-03-09T23:35:25.140768","MEAN_MOTION":15.51754005,"ECCENTRICITY":0.00041872,"INCLINATION":97.6041,"RA_OF_ASC_NODE":205.6865,"ARG_OF_PERICENTER":23.2196,"MEAN_ANOMALY":336.9244,"EPHEMERIS_TYPE":0,"CLASSIFICATION_TYPE":"U","NORAD_CAT_ID":54255,"ELEMENT_SET_NO":999,"REV_AT_EPOCH":18428,"BSTAR":0.00078662811,"MEAN_MOTION_DOT":0.00047033,"MEAN_MOTION_DDOT":0},{"OBJECT_NAME":"SONATE-2","OBJECT_ID":"2024-043Q","EPOCH":"2026-03-09T22:01:02.618688","MEAN_MOTION":15.51375867,"ECCENTRICITY":0.00078362,"INCLINATION":97.5397,"RA_OF_ASC_NODE":213.8574,"ARG_OF_PERICENTER":203.8793,"MEAN_ANOMALY":156.2096,"EPHEMERIS_TYPE":0,"CLASSIFICATION_TYPE":"U","NORAD_CAT_ID":59112,"ELEMENT_SET_NO":999,"REV_AT_EPOCH":11246,"BSTAR":0.00067640221,"MEAN_MOTION_DOT":0.00039886,"MEAN_MOTION_DDOT":0}]
